[
    {
        "CCSDS_OMM_VERS": "3.0",
        "COMMENT": "GENERATED VIA SPACE-TRACK.ORG API",
        "CREATION_DATE": "2025-03-02T18:08:23",
        "ORIGINATOR": "18 SPCS",
        "OBJECT_NAME": "BEIDOU 3 IGSO-1",
        "OBJECT_ID": "2019-023A",
        "CENTER_NAME": "EARTH",
        "REF_FRAME": "TEME",
        "TIME_SYSTEM": "UTC",
        "MEAN_ELEMENT_THEORY": "SGP4",
        "EPOCH": "2025-03-02T08:27:47.335680",
        "MEAN_MOTION": "1.00276677",
        "ECCENTRICITY": "0.00224330",
        "INCLINATION": "58.0262",
        "RA_OF_ASC_NODE": "42.5251",
        "ARG_OF_PERICENTER": "227.3634",
        "MEAN_ANOMALY": "137.0785",
        "EPHEMERIS_TYPE": "0",
        "CLASSIFICATION_TYPE": "U",
        "NORAD_CAT_ID": "44204",
        "ELEMENT_SET_NO": "999",
        "REV_AT_EPOCH": "248",
        "BSTAR": "0.00000000000000",
        "MEAN_MOTION_DOT": "-0.00000200",
        "MEAN_MOTION_DDOT": "0.0000000000000",
        "SEMIMAJOR_AXIS": "42163.361",
        "PERIOD": "1436.027",
        "APOAPSIS": "35879.811",
        "PERIAPSIS": "35690.641",
        "OBJECT_TYPE": "PAYLOAD",
        "RCS_SIZE": "LARGE",
        "COUNTRY_CODE": "PRC",
        "LAUNCH_DATE": "2019-04-20",
        "SITE": "XSC",
        "DECAY_DATE": null,
        "FILE": "4657142",
        "GP_ID": "282087818",
        "TLE_LINE0": "0 BEIDOU 3 IGSO-1",
        "TLE_LINE1": "1 44204U 19023A   25061.35263120 -.00000200  00000-0  00000-0 0  9998",
        "TLE_LINE2": "2 44204  58.0262  42.5251 0022433 227.3634 137.0785  1.00276677  2480"
    }
]